{"type": "FeatureCollection", "features": [ {"type": "Feature", "properties": {"norad_id": 40115, "name": "WORLDVIEW-3 (WV-3)", "group": "resource", "lat": -82.01851301096802, "lon": 137.72794952327388, "alt_km": 618.879912865501, "timestamp": "2025-12-11T05:00:25.968154+00:00", "meta": {"OBJECT_NAME": "WORLDVIEW-3 (WV-3)", "OBJECT_ID": "2014-048A", "EPOCH": "2025-12-10T21:19:22.804032", "MEAN_MOTION": 14.85503952, "ECCENTRICITY": 0.00046075, "INCLINATION": 97.8617, "RA_OF_ASC_NODE": 57.192, "ARG_OF_PERICENTER": 190.9245, "MEAN_ANOMALY": 169.1871, "EPHEMERIS_TYPE": 0, "CLASSIFICATION_TYPE": "U", "NORAD_CAT_ID": 40115, "ELEMENT_SET_NO": 999, "REV_AT_EPOCH": 61396, "BSTAR": 0.00021051658, "MEAN_MOTION_DOT": 1.764e-05, "MEAN_MOTION_DDOT": 0}, "tle": {"line1": "1 40115U 14048A   25344.88845838  .00001764  00000+0  21052-3 0  9998", "line2": "2 40115  97.8617  57.1920 0004607 190.9245 169.1871 14.85503952613962"}}, "geometry": {"type": "Point", "coordinates": [137.72794952327388, -82.01851301096802]}}, {"type": "Feature", "properties": {"norad_id": 40118, "name": "GAOFEN-2", "group": "resource", "lat": 63.153360044094846, "lon": -119.4144796643359, "alt_km": 615.3113370836136, "timestamp": "2025-12-11T05:00:25.968164+00:00", "meta": {"OBJECT_NAME": "GAOFEN-2", "OBJECT_ID": "2014-049A", "EPOCH": "2025-12-10T23:37:16.457664", "MEAN_MOTION": 14.80601757, "ECCENTRICITY": 0.00085055, "INCLINATION": 98.0381, "RA_OF_ASC_NODE": 44.1489, "ARG_OF_PERICENTER": 117.8856, "MEAN_ANOMALY": 242.3219, "EPHEMERIS_TYPE": 0, "CLASSIFICATION_TYPE": "U", "NORAD_CAT_ID": 40118, "ELEMENT_SET_NO": 999, "REV_AT_EPOCH": 61138, "BSTAR": 0.00012487649, "MEAN_MOTION_DOT": 9.05e-06, "MEAN_MOTION_DDOT": 0}, "tle": {"line1": "1 40118U 14049A   25344.98421826  .00000905  00000+0  12488-3 0  9999", "line2": "2 40118  98.0381  44.1489 0008505 117.8856 242.3219 14.80601757611380"}}, "geometry": {"type": "Point", "coordinates": [-119.4144796643359, 63.153360044094846]}}, {"type": "Feature", "properties": {"norad_id": 40143, "name": "YAOGAN-21", "group": "resource", "lat": -22.225429681393038, "lon": -154.3638492458337, "alt_km": 506.5197241154192, "timestamp": "2025-12-11T05:00:25.968175+00:00", "meta": {"OBJECT_NAME": "YAOGAN-21", "OBJECT_ID": "2014-053A", "EPOCH": "2025-12-10T23:23:38.700672", "MEAN_MOTION": 15.23645384, "ECCENTRICITY": 0.00098968, "INCLINATION": 97.176, "RA_OF_ASC_NODE": 28.3634, "ARG_OF_PERICENTER": 47.3476, "MEAN_ANOMALY": 312.8594, "EPHEMERIS_TYPE": 0, "CLASSIFICATION_TYPE": "U", "NORAD_CAT_ID": 40143, "ELEMENT_SET_NO": 999, "REV_AT_EPOCH": 62627, "BSTAR": 0.00040459361, "MEAN_MOTION_DOT": 9.647e-05, "MEAN_MOTION_DDOT": 0}, "tle": {"line1": "1 40143U 14053A   25344.97475348  .00009647  00000+0  40459-3 0  9990", "line2": "2 40143  97.1760  28.3634 0009896  47.3476 312.8594 15.23645384626279"}}, "geometry": {"type": "Point", "coordinates": [-154.3638492458337, -22.225429681393038]}}, {"type": "Feature", "properties": {"norad_id": 40275, "name": "YAOGAN-22", "group": "resource", "lat": 73.54123288113095, "lon": -11.41372553283332, "alt_km": 1198.6141455473708, "timestamp": "2025-12-11T05:00:25.968185+00:00", "meta": {"OBJECT_NAME": "YAOGAN-22", "OBJECT_ID": "2014-063A", "EPOCH": "2025-12-10T15:42:39.021984", "MEAN_MOTION": 13.15522571, "ECCENTRICITY": 0.0005942, "INCLINATION": 100.742, "RA_OF_ASC_NODE": 128.0447, "ARG_OF_PERICENTER": 253.3648, "MEAN_ANOMALY": 106.6811, "EPHEMERIS_TYPE": 0, "CLASSIFICATION_TYPE": "U", "NORAD_CAT_ID": 40275, "ELEMENT_SET_NO": 999, "REV_AT_EPOCH": 53502, "BSTAR": 9.7846e-05, "MEAN_MOTION_DOT": -1e-07, "MEAN_MOTION_DDOT": 0}, "tle": {"line1": "1 40275U 14063A   25344.65461831 -.00000010  00000+0  97846-4 0  9993", "line2": "2 40275 100.7420 128.0447 0005942 253.3648 106.6811 13.15522571535021"}}, "geometry": {"type": "Point", "coordinates": [-11.41372553283332, 73.54123288113095]}}, {"type": "Feature", "properties": {"norad_id": 40298, "name": "ASNARO", "group": "resource", "lat": -81.99197946231163, "lon": 128.03018917789592, "alt_km": 518.0578139580903, "timestamp": "2025-12-11T05:00:25.968195+00:00", "meta": {"OBJECT_NAME": "ASNARO", "OBJECT_ID": "2014-070A", "EPOCH": "2025-12-10T23:04:02.071776", "MEAN_MOTION": 15.19427937, "ECCENTRICITY": 0.00054271, "INCLINATION": 97.3649, "RA_OF_ASC_NODE": 60.9502, "ARG_OF_PERICENTER": 126.8577, "MEAN_ANOMALY": 233.3156, "EPHEMERIS_TYPE": 0, "CLASSIFICATION_TYPE": "U", "NORAD_CAT_ID": 40298, "ELEMENT_SET_NO": 999, "REV_AT_EPOCH": 61542, "BSTAR": 0.00067650311, "MEAN_MOTION_DOT": 0.00014286, "MEAN_MOTION_DDOT": 0}, "tle": {"line1": "1 40298U 14070A   25344.96113509  .00014286  00000+0  67650-3 0  9994", "line2": "2 40298  97.3649  60.9502 0005427 126.8577 233.3156 15.19427937615428"}}, "geometry": {"type": "Point", "coordinates": [128.03018917789592, -81.99197946231163]}}, {"type": "Feature", "properties": {"norad_id": 40310, "name": "YAOGAN-24", "group": "resource", "lat": 55.38710065500877, "lon": -51.76452700310236, "alt_km": 626.4335841391157, "timestamp": "2025-12-11T05:00:25.968205+00:00", "meta": {"OBJECT_NAME": "YAOGAN-24", "OBJECT_ID": "2014-072A", "EPOCH": "2025-12-10T23:34:06.775104", "MEAN_MOTION": 14.7616968, "ECCENTRICITY": 0.00146502, "INCLINATION": 98.1224, "RA_OF_ASC_NODE": 116.0656, "ARG_OF_PERICENTER": 143.2656, "MEAN_ANOMALY": 216.956, "EPHEMERIS_TYPE": 0, "CLASSIFICATION_TYPE": "U", "NORAD_CAT_ID": 40310, "ELEMENT_SET_NO": 999, "REV_AT_EPOCH": 59595, "BSTAR": 0.00018054118, "MEAN_MOTION_DOT": 1.197e-05, "MEAN_MOTION_DDOT": 0}, "tle": {"line1": "1 40310U 14072A   25344.98202286  .00001197  00000+0  18054-3 0  9995", "line2": "2 40310  98.1224 116.0656 0014650 143.2656 216.9560 14.76169680595954"}}, "geometry": {"type": "Point", "coordinates": [-51.76452700310236, 55.38710065500877]}}, {"type": "Feature", "properties": {"norad_id": 40336, "name": "CBERS 4", "group": "resource", "lat": 81.43680882274879, "lon": -33.39674109591103, "alt_km": 764.8444105618073, "timestamp": "2025-12-11T05:00:25.968216+00:00", "meta": {"OBJECT_NAME": "CBERS 4", "OBJECT_ID": "2014-079A", "EPOCH": "2025-12-10T23:34:48.724032", "MEAN_MOTION": 14.3551633, "ECCENTRICITY": 0.00016293, "INCLINATION": 98.3306, "RA_OF_ASC_NODE": 43.059, "ARG_OF_PERICENTER": 114.4544, "MEAN_ANOMALY": 245.6812, "EPHEMERIS_TYPE": 0, "CLASSIFICATION_TYPE": "U", "NORAD_CAT_ID": 40336, "ELEMENT_SET_NO": 999, "REV_AT_EPOCH": 57695, "BSTAR": 6.9619163e-05, "MEAN_MOTION_DOT": 1.58e-06, "MEAN_MOTION_DDOT": 0}, "tle": {"line1": "1 40336U 14079A   25344.98250838  .00000158  00000+0  69619-4 0  9996", "line2": "2 40336  98.3306  43.0590 0001629 114.4544 245.6812 14.35516330576950"}}, "geometry": {"type": "Point", "coordinates": [-33.39674109591103, 81.43680882274879]}}, {"type": "Feature", "properties": {"norad_id": 40362, "name": "YAOGAN-26", "group": "resource", "lat": -11.287941306936116, "lon": 164.5181924221124, "alt_km": 456.97958601674964, "timestamp": "2025-12-11T05:00:25.968230+00:00", "meta": {"OBJECT_NAME": "YAOGAN-26", "OBJECT_ID": "2014-088A", "EPOCH": "2025-12-10T23:29:54.201120", "MEAN_MOTION": 15.39204154, "ECCENTRICITY": 0.0006518, "INCLINATION": 97.0648, "RA_OF_ASC_NODE": 345.7153, "ARG_OF_PERICENTER": 35.1057, "MEAN_ANOMALY": 325.0618, "EPHEMERIS_TYPE": 0, "CLASSIFICATION_TYPE": "U", "NORAD_CAT_ID": 40362, "ELEMENT_SET_NO": 999, "REV_AT_EPOCH": 60867, "BSTAR": 0.00087207188, "MEAN_MOTION_DOT": 0.00033949, "MEAN_MOTION_DDOT": 0}, "tle": {"line1": "1 40362U 14088A   25344.97909955  .00033949  00000+0  87207-3 0  9991", "line2": "2 40362  97.0648 345.7153 0006518  35.1057 325.0618 15.39204154608676"}}, "geometry": {"type": "Point", "coordinates": [164.5181924221124, -11.287941306936116]}}, {"type": "Feature", "properties": {"norad_id": 40376, "name": "SMAP", "group": "resource", "lat": 41.6750293004043, "lon": 177.26453910912542, "alt_km": 678.4973591481958, "timestamp": "2025-12-11T05:00:25.968240+00:00", "meta": {"OBJECT_NAME": "SMAP", "OBJECT_ID": "2015-003A", "EPOCH": "2025-12-10T23:27:24.792192", "MEAN_MOTION": 14.63341291, "ECCENTRICITY": 0.00012001, "INCLINATION": 98.1291, "RA_OF_ASC_NODE": 349.7266, "ARG_OF_PERICENTER": 88.7501, "MEAN_ANOMALY": 271.3839, "EPHEMERIS_TYPE": 0, "CLASSIFICATION_TYPE": "U", "NORAD_CAT_ID": 40376, "ELEMENT_SET_NO": 999, "REV_AT_EPOCH": 58009, "BSTAR": 0.00017884875, "MEAN_MOTION_DOT": 8.77e-06, "MEAN_MOTION_DDOT": 0}, "tle": {"line1": "1 40376U 15003A   25344.97737028  .00000877  00000+0  17885-3 0  9993", "line2": "2 40376  98.1291 349.7266 0001200  88.7501 271.3839 14.63341291580090"}}, "geometry": {"type": "Point", "coordinates": [177.26453910912542, 41.6750293004043]}}, {"type": "Feature", "properties": {"norad_id": 40536, "name": "KOMPSAT-3A", "group": "resource", "lat": 72.21898578298617, "lon": 164.35178420348257, "alt_km": 424.8953908936346, "timestamp": "2025-12-11T05:00:25.968250+00:00", "meta": {"OBJECT_NAME": "KOMPSAT-3A", "OBJECT_ID": "2015-014A", "EPOCH": "2025-12-10T22:19:38.295840", "MEAN_MOTION": 15.43836917, "ECCENTRICITY": 0.00046903, "INCLINATION": 97.6791, "RA_OF_ASC_NODE": 319.177, "ARG_OF_PERICENTER": 130.8863, "MEAN_ANOMALY": 229.2792, "EPHEMERIS_TYPE": 0, "CLASSIFICATION_TYPE": "U", "NORAD_CAT_ID": 40536, "ELEMENT_SET_NO": 999, "REV_AT_EPOCH": 59267, "BSTAR": 0.00058192091, "MEAN_MOTION_DOT": 0.00026349, "MEAN_MOTION_DDOT": 0}, "tle": {"line1": "1 40536U 15014A   25344.93030435  .00026349  00000+0  58192-3 0  9995", "line2": "2 40536  97.6791 319.1770 0004690 130.8863 229.2792 15.43836917592674"}}, "geometry": {"type": "Point", "coordinates": [164.35178420348257, 72.21898578298617]}}]}